0 HITCH HIKER 1
1 00614U 63025B   13282.12023931  .00017927  00000-0  49160-3 0  4921
2 00614 082.0116 254.8112 0801593 148.0907 342.7692 14.00243503245870
0 HITCH HIKER 1
1 00614U 63025B   13283.18302323  .00016816  00000-0  46067-3 0  4933
2 00614 082.0113 253.8702 0801496 145.0263 300.2060 14.00279360246021
0 HITCH HIKER 1
1 00614U 63025B   13284.54724880  .00018568  00000-0  50817-3 0  4945
2 00614 082.0111 252.6622 0801426 141.0910 337.3872 14.00318747246211
0 HITCH HIKER 1
1 00614U 63025B   13285.81971601  .00015274  00000-0  41705-3 0  4959
2 00614 082.0111 251.5355 0801397 137.4268 272.1708 14.00357040246396
0 HITCH HIKER 1
1 00614U 63025B   13286.82122823  .00015376  00000-0  41938-3 0  4967
2 00614 082.0112 250.6486 0801380 134.5429 281.1273 14.00382635246532
0 HITCH HIKER 1
1 00614U 63025B   13287.82252542  .00017557  00000-0  47846-3 0  4978
2 00614 082.0115 249.7618 0801367 131.6609 289.0919 14.00411165246674
0 HITCH HIKER 1
1 00614U 63025B   13289.12173777  .00018907  00000-0  51491-3 0  4987
2 00614 082.0122 248.6114 0801231 127.9235 359.1653 14.00457253246856
0 HITCH HIKER 1
1 00614U 63025B   13290.12190167  .00018079  00000-0  49233-3 0  4993
2 00614 082.0127 247.7257 0801081 125.0450 001.6967 14.00486355246997
0 HITCH HIKER 1
1 00614U 63025B   13291.18513164  .00017222  00000-0  46896-3 0  5000
2 00614 082.0133 246.7844 0800901 121.9890 322.3082 14.00522242247143
0 HITCH HIKER 1
1 00614U 63025B   13292.18664510  .00015802  00000-0  43039-3 0  5012
2 00614 082.0137 245.8979 0800710 119.1098 331.8748 14.00550808247281
0 HITCH HIKER 1
1 00614U 63025B   13293.40881809  .00015387  00000-0  41921-3 0  5027
2 00614 082.0137 244.8162 0800507 115.5945 014.1264 14.00584232247450
0 HITCH HIKER 1
1 00614U 63025B   13294.47847051  .00018582  00000-0  50660-3 0  5037
2 00614 082.0137 243.8694 0800376 112.5143 007.4931 14.00612886247600
0 HITCH HIKER 1
1 00614U 63025B   13295.82838598  .00018172  00000-0  49505-3 0  5045
2 00614 082.0136 242.6744 0800251 108.6267 334.1523 14.00652355247799
